start=new Date('2022-10-26T00:00:00.000Z').valueOf();
sats=[{"OBJECT_NAME":"STARLINK-2126","DECAY_DATE":null,"CLASSIFICATION_TYPE":"U","REV_AT_EPOCH":"9228","EPOCH":"2022-10-25T11:10:04.015200","FILE":"3633075","MEAN_ELEMENT_THEORY":"SGP4","OBJECT_ID":"2021-017E","MEAN_MOTION_DOT":"-0.00000290","TIME_SYSTEM":"UTC","ELEMENT_SET_NO":"999","ARG_OF_PERICENTER":"34.7476","PERIOD":"95.593","TLE_LINE2":"2 47726  53.0566 328.8088 0002253  34.7476 325.3659 15.06386387 92284","INCLINATION":"53.0566","MEAN_ANOMALY":"325.3659","BSTAR":"-0.00000056392000","RCS_SIZE":"MEDIUM","REF_FRAME":"TEME","GP_ID":"216123058","APOAPSIS":"548.816","PERIAPSIS":"545.695","MEAN_MOTION_DDOT":"0.0000000000000","ECCENTRICITY":"0.00022530","EPHEMERIS_TYPE":"0","OBJECT_TYPE":"PAYLOAD","MEAN_MOTION":"15.06386387","CENTER_NAME":"EARTH","SITE":"AFETR","TLE_LINE1":"1 47726U 21017E   22298.46532425 -.00000290  00000-0 -56392-6 0  9995","LAUNCH_DATE":"2021-03-04","NORAD_CAT_ID":"47726","SEMIMAJOR_AXIS":"6925.390","COUNTRY_CODE":"US","RA_OF_ASC_NODE":"328.8088"},{"LAUNCH_DATE":"2021-03-04","NORAD_CAT_ID":"47727","CENTER_NAME":"EARTH","MEAN_MOTION":"15.06394038","TLE_LINE1":"1 47727U 21017F   22298.88087689  .00000152  00000-0  29085-4 0  9991","SITE":"AFETR","SEMIMAJOR_AXIS":"6925.367","COUNTRY_CODE":"US","RA_OF_ASC_NODE":"246.9472","REF_FRAME":"TEME","GP_ID":"216152761","APOAPSIS":"548.506","PERIAPSIS":"545.958","BSTAR":"0.00002908500000","RCS_SIZE":"LARGE","MEAN_MOTION_DDOT":"0.0000000000000","ECCENTRICITY":"0.00018400","OBJECT_TYPE":"PAYLOAD","EPHEMERIS_TYPE":"0","TIME_SYSTEM":"UTC","ELEMENT_SET_NO":"999","MEAN_MOTION_DOT":"0.00000152","PERIOD":"95.593","TLE_LINE2":"2 47727  53.0536 246.9472 0001840  41.4482 318.6647 15.06394038 93502","MEAN_ANOMALY":"318.6647","INCLINATION":"53.0536","ARG_OF_PERICENTER":"41.4482","REV_AT_EPOCH":"9350","EPOCH":"2022-10-25T21:08:27.763296","OBJECT_NAME":"STARLINK-2129","DECAY_DATE":null,"CLASSIFICATION_TYPE":"U","OBJECT_ID":"2021-017F","FILE":"3633327","MEAN_ELEMENT_THEORY":"SGP4"},{"RCS_SIZE":"LARGE","BSTAR":"-0.00023471000000","PERIAPSIS":"545.958","REF_FRAME":"TEME","GP_ID":"216153511","APOAPSIS":"548.557","ECCENTRICITY":"0.00018760","OBJECT_TYPE":"PAYLOAD","EPHEMERIS_TYPE":"0","MEAN_MOTION_DDOT":"0.0000000000000","CENTER_NAME":"EARTH","MEAN_MOTION":"15.06385628","TLE_LINE1":"1 47728U 21017G   22298.50586874 -.00003775  00000-0 -23471-3 0  9999","SITE":"AFETR","LAUNCH_DATE":"2021-03-04","NORAD_CAT_ID":"47728","COUNTRY_CODE":"US","RA_OF_ASC_NODE":"328.6182","SEMIMAJOR_AXIS":"6925.393","CLASSIFICATION_TYPE":"U","DECAY_DATE":null,"OBJECT_NAME":"STARLINK-2131","EPOCH":"2022-10-25T12:08:27.059136","REV_AT_EPOCH":"9235","MEAN_ELEMENT_THEORY":"SGP4","FILE":"3633327","OBJECT_ID":"2021-017G","MEAN_MOTION_DOT":"-0.00003775","TIME_SYSTEM":"UTC","ELEMENT_SET_NO":"999","ARG_OF_PERICENTER":"44.6365","MEAN_ANOMALY":"315.4774","INCLINATION":"53.0552","PERIOD":"95.593","TLE_LINE2":"2 47728  53.0552 328.6182 0001876  44.6365 315.4774 15.06385628 92354"},{"OBJECT_ID":"2021-017H","MEAN_ELEMENT_THEORY":"SGP4","FILE":"3633327","EPOCH":"2022-10-25T16:01:20.563104","REV_AT_EPOCH":"9308","CLASSIFICATION_TYPE":"U","DECAY_DATE":null,"OBJECT_NAME":"STARLINK-2132","INCLINATION":"53.0563","MEAN_ANOMALY":"294.8677","TLE_LINE2":"2 47729  53.0563 273.1002 0001982  65.2518 294.8677 15.06392233 93082","PERIOD":"95.593","ARG_OF_PERICENTER":"65.2518","ELEMENT_SET_NO":"999","TIME_SYSTEM":"UTC","MEAN_MOTION_DOT":"0.00000543","OBJECT_TYPE":"PAYLOAD","EPHEMERIS_TYPE":"0","ECCENTRICITY":"0.00019820","MEAN_MOTION_DDOT":"0.0000000000000","PERIAPSIS":"545.865","APOAPSIS":"548.610","GP_ID":"216153763","REF_FRAME":"TEME","BSTAR":"0.00005538600000","RCS_SIZE":"LARGE","RA_OF_ASC_NODE":"273.1002","COUNTRY_CODE":"US","SEMIMAJOR_AXIS":"6925.372","NORAD_CAT_ID":"47729","LAUNCH_DATE":"2021-03-04","SITE":"AFETR","TLE_LINE1":"1 47729U 21017H   22298.66759911  .00000543  00000-0  55386-4 0  9990","MEAN_MOTION":"15.06392233","CENTER_NAME":"EARTH"},{"CENTER_NAME":"EARTH","MEAN_MOTION":"15.06385288","TLE_LINE1":"1 47730U 21017J   22298.39575182 -.00002459  00000-0 -14628-3 0  9991","SITE":"AFETR","LAUNCH_DATE":"2021-03-04","NORAD_CAT_ID":"47730","SEMIMAJOR_AXIS":"6925.394","COUNTRY_CODE":"US","RA_OF_ASC_NODE":"344.1202","RCS_SIZE":"LARGE","BSTAR":"-0.00014628000000","REF_FRAME":"TEME","GP_ID":"216122558","APOAPSIS":"548.865","PERIAPSIS":"545.652","MEAN_MOTION_DDOT":"0.0000000000000","ECCENTRICITY":"0.00023200","OBJECT_TYPE":"PAYLOAD","EPHEMERIS_TYPE":"0","MEAN_MOTION_DOT":"-0.00002459","TIME_SYSTEM":"UTC","ELEMENT_SET_NO":"999","ARG_OF_PERICENTER":"35.4491","PERIOD":"95.593","TLE_LINE2":"2 47730  53.0561 344.1202 0002320  35.4491 324.6652 15.06385288 92074","MEAN_ANOMALY":"324.6652","INCLINATION":"53.0561","DECAY_DATE":null,"OBJECT_NAME":"STARLINK-2140","CLASSIFICATION_TYPE":"U","REV_AT_EPOCH":"9207","EPOCH":"2022-10-25T09:29:52.957248","FILE":"3633075","MEAN_ELEMENT_THEORY":"SGP4","OBJECT_ID":"2021-017J"},{"MEAN_MOTION_DOT":"-0.00000991","TIME_SYSTEM":"UTC","ELEMENT_SET_NO":"999","ARG_OF_PERICENTER":"46.8176","PERIOD":"95.593","TLE_LINE2":"2 47731  53.0560 339.0960 0001947  46.8176 313.2975 15.06391129 92150","MEAN_ANOMALY":"313.2975","INCLINATION":"53.0560","DECAY_DATE":null,"OBJECT_NAME":"STARLINK-2141","CLASSIFICATION_TYPE":"U","REV_AT_EPOCH":"9215","EPOCH":"2022-10-25T09:38:30.583968","FILE":"3633075","MEAN_ELEMENT_THEORY":"SGP4","OBJECT_ID":"2021-017K","CENTER_NAME":"EARTH","MEAN_MOTION":"15.06391129","SITE":"AFETR","TLE_LINE1":"1 47731U 21017K   22298.40174287 -.00000991  00000-0 -47646-4 0  9991","LAUNCH_DATE":"2021-03-04","NORAD_CAT_ID":"47731","SEMIMAJOR_AXIS":"6925.376","COUNTRY_CODE":"US","RA_OF_ASC_NODE":"339.0960","BSTAR":"-0.00004764600000","RCS_SIZE":"LARGE","REF_FRAME":"TEME","GP_ID":"216123294","APOAPSIS":"548.589","PERIAPSIS":"545.892","MEAN_MOTION_DDOT":"0.0000000000000","ECCENTRICITY":"0.00019470","EPHEMERIS_TYPE":"0","OBJECT_TYPE":"PAYLOAD"},{"PERIAPSIS":"546.046","APOAPSIS":"548.421","GP_ID":"216153012","REF_FRAME":"TEME","RCS_SIZE":"LARGE","BSTAR":"-0.00000036586000","EPHEMERIS_TYPE":"0","OBJECT_TYPE":"PAYLOAD","ECCENTRICITY":"0.00017150","MEAN_MOTION_DDOT":"0.0000000000000","NORAD_CAT_ID":"47732","LAUNCH_DATE":"2021-03-04","TLE_LINE1":"1 47732U 21017L   22298.70630444 -.00000287  00000-0 -36586-6 0  9998","SITE":"AFETR","MEAN_MOTION":"15.06393410","CENTER_NAME":"EARTH","RA_OF_ASC_NODE":"252.9690","COUNTRY_CODE":"US","SEMIMAJOR_AXIS":"6925.369","EPOCH":"2022-10-25T16:57:04.703616","REV_AT_EPOCH":"9338","CLASSIFICATION_TYPE":"U","OBJECT_NAME":"STARLINK-2142","DECAY_DATE":null,"OBJECT_ID":"2021-017L","MEAN_ELEMENT_THEORY":"SGP4","FILE":"3633327","ELEMENT_SET_NO":"999","TIME_SYSTEM":"UTC","MEAN_MOTION_DOT":"-0.00000287","MEAN_ANOMALY":"304.6652","INCLINATION":"53.0551","TLE_LINE2":"2 47732  53.0551 252.9690 0001715  55.4498 304.6652 15.06393410 93387","PERIOD":"95.593","ARG_OF_PERICENTER":"55.4498"},{"CLASSIFICATION_TYPE":"U","DECAY_DATE":null,"OBJECT_NAME":"STARLINK-2143","EPOCH":"2022-10-25T12:32:19.282560","REV_AT_EPOCH":"9207","MEAN_ELEMENT_THEORY":"SGP4","FILE":"3633327","OBJECT_ID":"2021-017M","MEAN_MOTION_DOT":"-0.00001043","ELEMENT_SET_NO":"999","TIME_SYSTEM":"UTC","ARG_OF_PERICENTER":"56.5019","MEAN_ANOMALY":"303.6147","INCLINATION":"53.0558","TLE_LINE2":"2 47733  53.0558 348.5516 0001860  56.5019 303.6147 15.06394583 92071","PERIOD":"95.592","BSTAR":"-0.00005112200000","RCS_SIZE":"LARGE","PERIAPSIS":"545.942","APOAPSIS":"548.518","REF_FRAME":"TEME","GP_ID":"216154263","EPHEMERIS_TYPE":"0","OBJECT_TYPE":"PAYLOAD","ECCENTRICITY":"0.00018600","MEAN_MOTION_DDOT":"0.0000000000000","TLE_LINE1":"1 47733U 21017M   22298.52244540 -.00001043  00000-0 -51122-4 0  9999","SITE":"AFETR","CENTER_NAME":"EARTH","MEAN_MOTION":"15.06394583","NORAD_CAT_ID":"47733","LAUNCH_DATE":"2021-03-04","RA_OF_ASC_NODE":"348.5516","COUNTRY_CODE":"US","SEMIMAJOR_AXIS":"6925.365"},{"LAUNCH_DATE":"2021-03-04","NORAD_CAT_ID":"47734","CENTER_NAME":"EARTH","MEAN_MOTION":"15.06390899","SITE":"AFETR","TLE_LINE1":"1 47734U 21017N   22298.80719144 -.00001369  00000-0 -73006-4 0  9994","SEMIMAJOR_AXIS":"6925.376","COUNTRY_CODE":"US","RA_OF_ASC_NODE":"337.2735","GP_ID":"216154494","REF_FRAME":"TEME","APOAPSIS":"548.371","PERIAPSIS":"546.112","RCS_SIZE":"LARGE","BSTAR":"-0.00007300600000","MEAN_MOTION_DDOT":"0.0000000000000","ECCENTRICITY":"0.00016310","EPHEMERIS_TYPE":"0","OBJECT_TYPE":"PAYLOAD","TIME_SYSTEM":"UTC","ELEMENT_SET_NO":"999","MEAN_MOTION_DOT":"-0.00001369","PERIOD":"95.593","TLE_LINE2":"2 47734  53.0563 337.2735 0001631  52.8901 307.2236 15.06390899 92223","INCLINATION":"53.0563","MEAN_ANOMALY":"307.2236","ARG_OF_PERICENTER":"52.8901","REV_AT_EPOCH":"9222","EPOCH":"2022-10-25T19:22:21.340416","DECAY_DATE":null,"OBJECT_NAME":"STARLINK-2144","CLASSIFICATION_TYPE":"U","OBJECT_ID":"2021-017N","FILE":"3633327","MEAN_ELEMENT_THEORY":"SGP4"},{"ELEMENT_SET_NO":"999","TIME_SYSTEM":"UTC","MEAN_MOTION_DOT":"-0.00001211","TLE_LINE2":"2 47735  53.0558 263.2622 0002069  46.7318 313.3844 15.06386582 93229","PERIOD":"95.593","INCLINATION":"53.0558","MEAN_ANOMALY":"313.3844","ARG_OF_PERICENTER":"46.7318","REV_AT_EPOCH":"9322","EPOCH":"2022-10-25T14:58:58.968768","DECAY_DATE":null,"OBJECT_NAME":"STARLINK-2146","CLASSIFICATION_TYPE":"U","OBJECT_ID":"2021-017P","FILE":"3633327","MEAN_ELEMENT_THEORY":"SGP4","NORAD_CAT_ID":"47735","LAUNCH_DATE":"2021-03-04","SITE":"AFETR","TLE_LINE1":"1 47735U 21017P   22298.62429362 -.00001211  00000-0 -62427-4 0  9996","CENTER_NAME":"EARTH","MEAN_MOTION":"15.06386582","SEMIMAJOR_AXIS":"6925.390","RA_OF_ASC_NODE":"263.2622","COUNTRY_CODE":"US","APOAPSIS":"548.688","GP_ID":"216152762","REF_FRAME":"TEME","PERIAPSIS":"545.822","BSTAR":"-0.00006242700000","RCS_SIZE":"LARGE","MEAN_MOTION_DDOT":"0.0000000000000","OBJECT_TYPE":"PAYLOAD","EPHEMERIS_TYPE":"0","ECCENTRICITY":"0.00020690"}];
